[
    [
        {
            "CCSDS_OMM_VERS": "3.0",
            "COMMENT": "GENERATED VIA SPACE-TRACK.ORG API",
            "CREATION_DATE": "2025-07-25T06:56:33",
            "ORIGINATOR": "18 SPCS",
            "OBJECT_NAME": "MMS 1",
            "OBJECT_ID": "2015-011A",
            "CENTER_NAME": "EARTH",
            "REF_FRAME": "TEME",
            "TIME_SYSTEM": "UTC",
            "MEAN_ELEMENT_THEORY": "SGP4",
            "EPOCH": "2025-07-25T06:00:02.000160",
            "MEAN_MOTION": "0.28452735",
            "ECCENTRICITY": "0.86650320",
            "INCLINATION": "66.0234",
            "RA_OF_ASC_NODE": "354.2399",
            "ARG_OF_PERICENTER": "160.4774",
            "MEAN_ANOMALY": "28.3930",
            "EPHEMERIS_TYPE": "0",
            "CLASSIFICATION_TYPE": "U",
            "NORAD_CAT_ID": "40482",
            "ELEMENT_SET_NO": "999",
            "REV_AT_EPOCH": "1652",
            "BSTAR": "0.00000000000000",
            "MEAN_MOTION_DOT": "-0.00002061",
            "MEAN_MOTION_DDOT": "0.0000000000000",
            "SEMIMAJOR_AXIS": "97645.559",
            "PERIOD": "5061.025",
            "APOAPSIS": "175877.613",
            "PERIAPSIS": "6657.235",
            "OBJECT_TYPE": "PAYLOAD",
            "RCS_SIZE": "LARGE",
            "COUNTRY_CODE": "US",
            "LAUNCH_DATE": "2015-03-13",
            "SITE": "AFETR",
            "DECAY_DATE": null,
            "FILE": "4795163",
            "GP_ID": "293428254",
            "TLE_LINE0": "0 MMS 1",
            "TLE_LINE1": "1 40482U 15011A   25206.25002315 -.00002061  00000-0  00000+0 0  9998",
            "TLE_LINE2": "2 40482  66.0234 354.2399 8665032 160.4774  28.3930  0.28452735 16520"
        },
        {
            "CCSDS_OMM_VERS": "3.0",
            "COMMENT": "GENERATED VIA SPACE-TRACK.ORG API",
            "CREATION_DATE": "2025-07-25T06:56:33",
            "ORIGINATOR": "18 SPCS",
            "OBJECT_NAME": "MMS 2",
            "OBJECT_ID": "2015-011B",
            "CENTER_NAME": "EARTH",
            "REF_FRAME": "TEME",
            "TIME_SYSTEM": "UTC",
            "MEAN_ELEMENT_THEORY": "SGP4",
            "EPOCH": "2025-07-25T06:00:02.000160",
            "MEAN_MOTION": "0.28454815",
            "ECCENTRICITY": "0.86675470",
            "INCLINATION": "66.0247",
            "RA_OF_ASC_NODE": "354.2395",
            "ARG_OF_PERICENTER": "160.4743",
            "MEAN_ANOMALY": "28.3995",
            "EPHEMERIS_TYPE": "0",
            "CLASSIFICATION_TYPE": "U",
            "NORAD_CAT_ID": "40483",
            "ELEMENT_SET_NO": "999",
            "REV_AT_EPOCH": "1650",
            "BSTAR": "0.00000000000000",
            "MEAN_MOTION_DOT": "-0.00002062",
            "MEAN_MOTION_DDOT": "0.0000000000000",
            "SEMIMAJOR_AXIS": "97640.800",
            "PERIOD": "5060.655",
            "APOAPSIS": "175893.288",
            "PERIAPSIS": "6632.043",
            "OBJECT_TYPE": "PAYLOAD",
            "RCS_SIZE": "LARGE",
            "COUNTRY_CODE": "US",
            "LAUNCH_DATE": "2015-03-13",
            "SITE": "AFETR",
            "DECAY_DATE": null,
            "FILE": "4795174",
            "GP_ID": "293428266",
            "TLE_LINE0": "0 MMS 2",
            "TLE_LINE1": "1 40483U 15011B   25206.25002315 -.00002062  00000-0  00000+0 0  9990",
            "TLE_LINE2": "2 40483  66.0247 354.2395 8667547 160.4743  28.3995  0.28454815 16500"
        },
        {
            "CCSDS_OMM_VERS": "3.0",
            "COMMENT": "GENERATED VIA SPACE-TRACK.ORG API",
            "CREATION_DATE": "2025-07-25T06:56:33",
            "ORIGINATOR": "18 SPCS",
            "OBJECT_NAME": "MMS 3",
            "OBJECT_ID": "2015-011C",
            "CENTER_NAME": "EARTH",
            "REF_FRAME": "TEME",
            "TIME_SYSTEM": "UTC",
            "MEAN_ELEMENT_THEORY": "SGP4",
            "EPOCH": "2025-07-25T06:00:02.000160",
            "MEAN_MOTION": "0.28452742",
            "ECCENTRICITY": "0.86665030",
            "INCLINATION": "66.0293",
            "RA_OF_ASC_NODE": "354.2481",
            "ARG_OF_PERICENTER": "160.4850",
            "MEAN_ANOMALY": "28.3634",
            "EPHEMERIS_TYPE": "0",
            "CLASSIFICATION_TYPE": "U",
            "NORAD_CAT_ID": "40484",
            "ELEMENT_SET_NO": "999",
            "REV_AT_EPOCH": "1650",
            "BSTAR": "0.00000000000000",
            "MEAN_MOTION_DOT": "-0.00002061",
            "MEAN_MOTION_DDOT": "0.0000000000000",
            "SEMIMAJOR_AXIS": "97645.543",
            "PERIOD": "5061.024",
            "APOAPSIS": "175891.947",
            "PERIAPSIS": "6642.869",
            "OBJECT_TYPE": "PAYLOAD",
            "RCS_SIZE": "LARGE",
            "COUNTRY_CODE": "US",
            "LAUNCH_DATE": "2015-03-13",
            "SITE": "AFETR",
            "DECAY_DATE": null,
            "FILE": "4795174",
            "GP_ID": "293428715",
            "TLE_LINE0": "0 MMS 3",
            "TLE_LINE1": "1 40484U 15011C   25206.25002315 -.00002061  00000-0  00000+0 0  9990",
            "TLE_LINE2": "2 40484  66.0293 354.2481 8666503 160.4850  28.3634  0.28452742 16505"
        },
        {
            "CCSDS_OMM_VERS": "3.0",
            "COMMENT": "GENERATED VIA SPACE-TRACK.ORG API",
            "CREATION_DATE": "2025-07-25T06:56:33",
            "ORIGINATOR": "18 SPCS",
            "OBJECT_NAME": "MMS 4",
            "OBJECT_ID": "2015-011D",
            "CENTER_NAME": "EARTH",
            "REF_FRAME": "TEME",
            "TIME_SYSTEM": "UTC",
            "MEAN_ELEMENT_THEORY": "SGP4",
            "EPOCH": "2025-07-25T06:00:02.000160",
            "MEAN_MOTION": "0.28452610",
            "ECCENTRICITY": "0.86665980",
            "INCLINATION": "66.0205",
            "RA_OF_ASC_NODE": "354.2341",
            "ARG_OF_PERICENTER": "160.4932",
            "MEAN_ANOMALY": "28.3506",
            "EPHEMERIS_TYPE": "0",
            "CLASSIFICATION_TYPE": "U",
            "NORAD_CAT_ID": "40485",
            "ELEMENT_SET_NO": "999",
            "REV_AT_EPOCH": "1650",
            "BSTAR": "0.00000000000000",
            "MEAN_MOTION_DOT": "-0.00002061",
            "MEAN_MOTION_DDOT": "0.0000000000000",
            "SEMIMAJOR_AXIS": "97645.845",
            "PERIOD": "5061.047",
            "APOAPSIS": "175893.438",
            "PERIAPSIS": "6641.981",
            "OBJECT_TYPE": "PAYLOAD",
            "RCS_SIZE": "LARGE",
            "COUNTRY_CODE": "US",
            "LAUNCH_DATE": "2015-03-13",
            "SITE": "AFETR",
            "DECAY_DATE": null,
            "FILE": "4795174",
            "GP_ID": "293428267",
            "TLE_LINE0": "0 MMS 4",
            "TLE_LINE1": "1 40485U 15011D   25206.25002315 -.00002061  00000-0  00000+0 0  9991",
            "TLE_LINE2": "2 40485  66.0205 354.2341 8666598 160.4932  28.3506  0.28452610 16501"
        }
    ]
]